CCSDS_OMM_VERS = 2.0
CREATION_DATE  = 
ORIGINATOR     = 

OBJECT_NAME    = 2025-292J
OBJECT_ID      = 2025-292J
CENTER_NAME    = EARTH
REF_FRAME      = TEME
TIME_SYSTEM    = UTC
MEAN_ELEMENT_THEORY = SGP/SGP4

EPOCH          = 2026-01-08T05:05:02.651136
MEAN_MOTION    = 15.04691378
ECCENTRICITY   = .0015885
INCLINATION    = 97.6528
RA_OF_ASC_NODE = 85.5089
ARG_OF_PERICENTER = 174.8112
MEAN_ANOMALY   = 185.3282

EPHEMERIS_TYPE = 0
CLASSIFICATION_TYPE = U
NORAD_CAT_ID   = 67001
ELEMENT_SET_NO = 999
REV_AT_EPOCH   = 437
BSTAR          = .4852E-3
MEAN_MOTION_DOT = .6787E-4
MEAN_MOTION_DDOT = 0

CCSDS_OMM_VERS = 2.0
CREATION_DATE  = 
ORIGINATOR     = 

OBJECT_NAME    = ZK-1A R/B
OBJECT_ID      = 2025-292K
CENTER_NAME    = EARTH
REF_FRAME      = TEME
TIME_SYSTEM    = UTC
MEAN_ELEMENT_THEORY = SGP/SGP4

EPOCH          = 2026-01-08T05:33:26.582688
MEAN_MOTION    = 15.63907211
ECCENTRICITY   = .0189183
INCLINATION    = 97.7161
RA_OF_ASC_NODE = 88.2985
ARG_OF_PERICENTER = 267.8171
MEAN_ANOMALY   = 90.1415

EPHEMERIS_TYPE = 0
CLASSIFICATION_TYPE = U
NORAD_CAT_ID   = 67002
ELEMENT_SET_NO = 999
REV_AT_EPOCH   = 452
BSTAR          = .72764E-3
MEAN_MOTION_DOT = .178555E-2
MEAN_MOTION_DDOT = .11171E-4

CCSDS_OMM_VERS = 2.0
CREATION_DATE  = 
ORIGINATOR     = 

OBJECT_NAME    = STARLINK-35660
OBJECT_ID      = 2025-293A
CENTER_NAME    = EARTH
REF_FRAME      = TEME
TIME_SYSTEM    = UTC
MEAN_ELEMENT_THEORY = SGP/SGP4

EPOCH          = 2026-01-08T01:21:12.176352
MEAN_MOTION    = 15.52559889
ECCENTRICITY   = .00035333
INCLINATION    = 69.9994
RA_OF_ASC_NODE = 249.4115
ARG_OF_PERICENTER = 269.2756
MEAN_ANOMALY   = 90.8026

EPHEMERIS_TYPE = 0
CLASSIFICATION_TYPE = U
NORAD_CAT_ID   = 67003
ELEMENT_SET_NO = 999
REV_AT_EPOCH   = 575
BSTAR          = .13508522E-2
MEAN_MOTION_DOT = .83946E-3
MEAN_MOTION_DDOT = 0

CCSDS_OMM_VERS = 2.0
CREATION_DATE  = 
ORIGINATOR     = 

OBJECT_NAME    = STARLINK-35913
OBJECT_ID      = 2025-293B
CENTER_NAME    = EARTH
REF_FRAME      = TEME
TIME_SYSTEM    = UTC
MEAN_ELEMENT_THEORY = SGP/SGP4

EPOCH          = 2026-01-08T01:20:42.555840
MEAN_MOTION    = 15.52551959
ECCENTRICITY   = .00034197
INCLINATION    = 69.9999
RA_OF_ASC_NODE = 249.4109
ARG_OF_PERICENTER = 267.7452
MEAN_ANOMALY   = 92.3344

EPHEMERIS_TYPE = 0
CLASSIFICATION_TYPE = U
NORAD_CAT_ID   = 67004
ELEMENT_SET_NO = 999
REV_AT_EPOCH   = 575
BSTAR          = .10463423E-2
MEAN_MOTION_DOT = .64809E-3
MEAN_MOTION_DDOT = 0

CCSDS_OMM_VERS = 2.0
CREATION_DATE  = 
ORIGINATOR     = 

OBJECT_NAME    = STARLINK-36148
OBJECT_ID      = 2025-293C
CENTER_NAME    = EARTH
REF_FRAME      = TEME
TIME_SYSTEM    = UTC
MEAN_ELEMENT_THEORY = SGP/SGP4

EPOCH          = 2026-01-08T10:36:23.920128
MEAN_MOTION    = 15.52541892
ECCENTRICITY   = .0002913
INCLINATION    = 69.9998
RA_OF_ASC_NODE = 248.3496
ARG_OF_PERICENTER = 269.8017
MEAN_ANOMALY   = 90.2836

EPHEMERIS_TYPE = 0
CLASSIFICATION_TYPE = U
NORAD_CAT_ID   = 67005
ELEMENT_SET_NO = 999
REV_AT_EPOCH   = 581
BSTAR          = .16987E-2
MEAN_MOTION_DOT = .105822E-2
MEAN_MOTION_DDOT = 0

CCSDS_OMM_VERS = 2.0
CREATION_DATE  = 
ORIGINATOR     = 

OBJECT_NAME    = STARLINK-36156
OBJECT_ID      = 2025-293D
CENTER_NAME    = EARTH
REF_FRAME      = TEME
TIME_SYSTEM    = UTC
MEAN_ELEMENT_THEORY = SGP/SGP4

EPOCH          = 2026-01-08T09:03:07.379136
MEAN_MOTION    = 15.52565298
ECCENTRICITY   = .0003284
INCLINATION    = 70.0014
RA_OF_ASC_NODE = 248.5244
ARG_OF_PERICENTER = 270.1729
MEAN_ANOMALY   = 89.9081

EPHEMERIS_TYPE = 0
CLASSIFICATION_TYPE = U
NORAD_CAT_ID   = 67006
ELEMENT_SET_NO = 999
REV_AT_EPOCH   = 580
BSTAR          = .15835E-2
MEAN_MOTION_DOT = .98633E-3
MEAN_MOTION_DDOT = 0

CCSDS_OMM_VERS = 2.0
CREATION_DATE  = 
ORIGINATOR     = 

OBJECT_NAME    = STARLINK-36123
OBJECT_ID      = 2025-293E
CENTER_NAME    = EARTH
REF_FRAME      = TEME
TIME_SYSTEM    = UTC
MEAN_ELEMENT_THEORY = SGP/SGP4

EPOCH          = 2026-01-08T12:00:01.999296
MEAN_MOTION    = 15.52502631
ECCENTRICITY   = .0002855
INCLINATION    = 69.9999
RA_OF_ASC_NODE = 248.1897
ARG_OF_PERICENTER = 269.0783
MEAN_ANOMALY   = 55.5449

EPHEMERIS_TYPE = 0
CLASSIFICATION_TYPE = U
NORAD_CAT_ID   = 67007
ELEMENT_SET_NO = 999
REV_AT_EPOCH   = 445
BSTAR          = .12932E-4
MEAN_MOTION_DOT = .628E-5
MEAN_MOTION_DDOT = 0

CCSDS_OMM_VERS = 2.0
CREATION_DATE  = 
ORIGINATOR     = 

OBJECT_NAME    = STARLINK-36163
OBJECT_ID      = 2025-293F
CENTER_NAME    = EARTH
REF_FRAME      = TEME
TIME_SYSTEM    = UTC
MEAN_ELEMENT_THEORY = SGP/SGP4

EPOCH          = 2026-01-08T08:00:00.999360
MEAN_MOTION    = 15.52548554
ECCENTRICITY   = .0003348
INCLINATION    = 69.9997
RA_OF_ASC_NODE = 248.6418
ARG_OF_PERICENTER = 271.2497
MEAN_ANOMALY   = 205.8860

EPHEMERIS_TYPE = 0
CLASSIFICATION_TYPE = U
NORAD_CAT_ID   = 67008
ELEMENT_SET_NO = 999
REV_AT_EPOCH   = 442
BSTAR          = -.15629E-2
MEAN_MOTION_DOT = -.95281E-3
MEAN_MOTION_DDOT = 0

CCSDS_OMM_VERS = 2.0
CREATION_DATE  = 
ORIGINATOR     = 

OBJECT_NAME    = STARLINK-36118
OBJECT_ID      = 2025-293G
CENTER_NAME    = EARTH
REF_FRAME      = TEME
TIME_SYSTEM    = UTC
MEAN_ELEMENT_THEORY = SGP/SGP4

EPOCH          = 2026-01-08T09:02:08.132064
MEAN_MOTION    = 15.52550530
ECCENTRICITY   = .0003338
INCLINATION    = 69.9996
RA_OF_ASC_NODE = 248.5229
ARG_OF_PERICENTER = 267.4089
MEAN_ANOMALY   = 92.6716

EPHEMERIS_TYPE = 0
CLASSIFICATION_TYPE = U
NORAD_CAT_ID   = 67009
ELEMENT_SET_NO = 999
REV_AT_EPOCH   = 580
BSTAR          = .14249E-2
MEAN_MOTION_DOT = .88579E-3
MEAN_MOTION_DDOT = 0

CCSDS_OMM_VERS = 2.0
CREATION_DATE  = 
ORIGINATOR     = 

OBJECT_NAME    = STARLINK-36189
OBJECT_ID      = 2025-293H
CENTER_NAME    = EARTH
REF_FRAME      = TEME
TIME_SYSTEM    = UTC
MEAN_ELEMENT_THEORY = SGP/SGP4

EPOCH          = 2026-01-08T08:00:00.999360
MEAN_MOTION    = 15.52554239
ECCENTRICITY   = .0003376
INCLINATION    = 69.9997
RA_OF_ASC_NODE = 248.6348
ARG_OF_PERICENTER = 273.3713
MEAN_ANOMALY   = 209.5142

EPHEMERIS_TYPE = 0
CLASSIFICATION_TYPE = U
NORAD_CAT_ID   = 67010
ELEMENT_SET_NO = 999
REV_AT_EPOCH   = 442
BSTAR          = -.17842E-2
MEAN_MOTION_DOT = -.108591E-2
MEAN_MOTION_DDOT = 0

CCSDS_OMM_VERS = 2.0
CREATION_DATE  = 
ORIGINATOR     = 

OBJECT_NAME    = STARLINK-36167
OBJECT_ID      = 2025-293J
CENTER_NAME    = EARTH
REF_FRAME      = TEME
TIME_SYSTEM    = UTC
MEAN_ELEMENT_THEORY = SGP/SGP4

EPOCH          = 2026-01-08T08:00:00.999360
MEAN_MOTION    = 15.52550215
ECCENTRICITY   = .0003361
INCLINATION    = 69.9995
RA_OF_ASC_NODE = 248.6370
ARG_OF_PERICENTER = 269.3162
MEAN_ANOMALY   = 211.6550

EPHEMERIS_TYPE = 0
CLASSIFICATION_TYPE = U
NORAD_CAT_ID   = 67011
ELEMENT_SET_NO = 999
REV_AT_EPOCH   = 436
BSTAR          = -.16761E-2
MEAN_MOTION_DOT = -.102085E-2
MEAN_MOTION_DDOT = 0

CCSDS_OMM_VERS = 2.0
CREATION_DATE  = 
ORIGINATOR     = 

OBJECT_NAME    = STARLINK-36175
OBJECT_ID      = 2025-293K
CENTER_NAME    = EARTH
REF_FRAME      = TEME
TIME_SYSTEM    = UTC
MEAN_ELEMENT_THEORY = SGP/SGP4

EPOCH          = 2026-01-08T08:00:00.999360
MEAN_MOTION    = 15.52555837
ECCENTRICITY   = .000338
INCLINATION    = 69.9996
RA_OF_ASC_NODE = 248.6321
ARG_OF_PERICENTER = 272.0842
MEAN_ANOMALY   = 212.7206

EPHEMERIS_TYPE = 0
CLASSIFICATION_TYPE = U
NORAD_CAT_ID   = 67012
ELEMENT_SET_NO = 999
REV_AT_EPOCH   = 436
BSTAR          = -.18615E-2
MEAN_MOTION_DOT = -.113225E-2
MEAN_MOTION_DDOT = 0

